STARLINK-36698          
1 67709U 26025S   26052.83335647 -.01630650  00000+0 -74986-2 0  9996
2 67709  97.2702 163.6383 0001633  69.4320 331.2006 15.86334706  3309
STARLINK-36344          
1 67710U 26025T   26052.83335647 -.01633142  00000+0 -77795-2 0  9998
2 67710  97.2709 163.6296 0001355  79.9939 299.9138 15.85620794  3461
STARLINK-36687          
1 67711U 26025U   26052.83335647 -.01632495  00000+0 -76503-2 0  9995
2 67711  97.2704 163.6335 0001578  70.2852 319.2957 15.85952298  3468
STARLINK-36705          
1 67712U 26025V   26052.83335647 -.01620908  00000+0 -73057-2 0  9993
2 67712  97.2693 163.6423 0001389  75.6667 336.4917 15.86729072  3366
STARLINK-36708          
1 67713U 26025W   26052.83335647 -.01601561  00000+0 -68781-2 0  9996
2 67713  97.2692 163.6547 0001639  69.5256  10.0410 15.87668600  3360
STARLINK-36702          
1 67714U 26025X   26052.83335647 -.01612715  00000+0 -70298-2 0  9996
2 67714  97.2693 163.6509 0001625  69.9848   1.3133 15.87388765  3092
STARLINK-36718          
1 67715U 26025Y   26052.83335647 -.01597526  00000+0 -66273-2 0  9997
2 67715  97.2697 163.6642 0001497  83.4110  15.8329 15.88357825  3300
STARLINK-36715          
1 67716U 26025Z   26052.83335647 -.01581861  00000+0 -66633-2 0  9993
2 67716  97.2692 163.6598 0001610  67.8590  22.1425 15.88023268  3366
STARLINK-36385          
1 67717U 26025AA  26052.83335647 -.01619139  00000+0 -71821-2 0  9999
2 67717  97.2697 163.6472 0001615  70.4737 350.8857 15.87047076  3363
CZ-2F DEB               
1 67718U 26024E   26052.52365969  .00210270  00000+0  41028-2 0  9991
2 67718  50.3137  97.7487 0254847 216.4248 141.9134 15.18401207  2171
CZ-2F DEB               
1 67719U 26024F   26052.57216703  .00150422  00000+0  38013-2 0  9990
2 67719  49.7898  99.1977 0329059 206.8787 151.4773 14.98572686  1820
CZ-2F DEB               
1 67720U 26024G   26052.79826018  .00151163  00000+0  39202-2 0  9996
2 67720  49.8297  98.4176 0339398 204.2452 154.2191 14.95982029  2174
