CCSDS_OMM_VERS = 2.0
CREATION_DATE  = 
ORIGINATOR     = 

OBJECT_NAME    = STARLINK-36698
OBJECT_ID      = 2026-025S
CENTER_NAME    = EARTH
REF_FRAME      = TEME
TIME_SYSTEM    = UTC
MEAN_ELEMENT_THEORY = SGP/SGP4

EPOCH          = 2026-02-21T20:00:01.999008
MEAN_MOTION    = 15.86334706
ECCENTRICITY   = .0001633
INCLINATION    = 97.2702
RA_OF_ASC_NODE = 163.6383
ARG_OF_PERICENTER = 69.4320
MEAN_ANOMALY   = 331.2006

EPHEMERIS_TYPE = 0
CLASSIFICATION_TYPE = U
NORAD_CAT_ID   = 67709
ELEMENT_SET_NO = 999
REV_AT_EPOCH   = 330
BSTAR          = -.74986E-2
MEAN_MOTION_DOT = -.163065E-1
MEAN_MOTION_DDOT = 0

CCSDS_OMM_VERS = 2.0
CREATION_DATE  = 
ORIGINATOR     = 

OBJECT_NAME    = STARLINK-36344
OBJECT_ID      = 2026-025T
CENTER_NAME    = EARTH
REF_FRAME      = TEME
TIME_SYSTEM    = UTC
MEAN_ELEMENT_THEORY = SGP/SGP4

EPOCH          = 2026-02-21T20:00:01.999008
MEAN_MOTION    = 15.85620794
ECCENTRICITY   = .0001355
INCLINATION    = 97.2709
RA_OF_ASC_NODE = 163.6296
ARG_OF_PERICENTER = 79.9939
MEAN_ANOMALY   = 299.9138

EPHEMERIS_TYPE = 0
CLASSIFICATION_TYPE = U
NORAD_CAT_ID   = 67710
ELEMENT_SET_NO = 999
REV_AT_EPOCH   = 346
BSTAR          = -.77795E-2
MEAN_MOTION_DOT = -.1633142E-1
MEAN_MOTION_DDOT = 0

CCSDS_OMM_VERS = 2.0
CREATION_DATE  = 
ORIGINATOR     = 

OBJECT_NAME    = STARLINK-36687
OBJECT_ID      = 2026-025U
CENTER_NAME    = EARTH
REF_FRAME      = TEME
TIME_SYSTEM    = UTC
MEAN_ELEMENT_THEORY = SGP/SGP4

EPOCH          = 2026-02-21T20:00:01.999008
MEAN_MOTION    = 15.85952298
ECCENTRICITY   = .0001578
INCLINATION    = 97.2704
RA_OF_ASC_NODE = 163.6335
ARG_OF_PERICENTER = 70.2852
MEAN_ANOMALY   = 319.2957

EPHEMERIS_TYPE = 0
CLASSIFICATION_TYPE = U
NORAD_CAT_ID   = 67711
ELEMENT_SET_NO = 999
REV_AT_EPOCH   = 346
BSTAR          = -.76503E-2
MEAN_MOTION_DOT = -.1632495E-1
MEAN_MOTION_DDOT = 0

CCSDS_OMM_VERS = 2.0
CREATION_DATE  = 
ORIGINATOR     = 

OBJECT_NAME    = STARLINK-36705
OBJECT_ID      = 2026-025V
CENTER_NAME    = EARTH
REF_FRAME      = TEME
TIME_SYSTEM    = UTC
MEAN_ELEMENT_THEORY = SGP/SGP4

EPOCH          = 2026-02-21T20:00:01.999008
MEAN_MOTION    = 15.86729072
ECCENTRICITY   = .0001389
INCLINATION    = 97.2693
RA_OF_ASC_NODE = 163.6423
ARG_OF_PERICENTER = 75.6667
MEAN_ANOMALY   = 336.4917

EPHEMERIS_TYPE = 0
CLASSIFICATION_TYPE = U
NORAD_CAT_ID   = 67712
ELEMENT_SET_NO = 999
REV_AT_EPOCH   = 336
BSTAR          = -.73057E-2
MEAN_MOTION_DOT = -.1620908E-1
MEAN_MOTION_DDOT = 0

CCSDS_OMM_VERS = 2.0
CREATION_DATE  = 
ORIGINATOR     = 

OBJECT_NAME    = STARLINK-36708
OBJECT_ID      = 2026-025W
CENTER_NAME    = EARTH
REF_FRAME      = TEME
TIME_SYSTEM    = UTC
MEAN_ELEMENT_THEORY = SGP/SGP4

EPOCH          = 2026-02-21T20:00:01.999008
MEAN_MOTION    = 15.87668600
ECCENTRICITY   = .0001639
INCLINATION    = 97.2692
RA_OF_ASC_NODE = 163.6547
ARG_OF_PERICENTER = 69.5256
MEAN_ANOMALY   = 10.0410

EPHEMERIS_TYPE = 0
CLASSIFICATION_TYPE = U
NORAD_CAT_ID   = 67713
ELEMENT_SET_NO = 999
REV_AT_EPOCH   = 336
BSTAR          = -.68781E-2
MEAN_MOTION_DOT = -.1601561E-1
MEAN_MOTION_DDOT = 0

CCSDS_OMM_VERS = 2.0
CREATION_DATE  = 
ORIGINATOR     = 

OBJECT_NAME    = STARLINK-36702
OBJECT_ID      = 2026-025X
CENTER_NAME    = EARTH
REF_FRAME      = TEME
TIME_SYSTEM    = UTC
MEAN_ELEMENT_THEORY = SGP/SGP4

EPOCH          = 2026-02-21T20:00:01.999008
MEAN_MOTION    = 15.87388765
ECCENTRICITY   = .0001625
INCLINATION    = 97.2693
RA_OF_ASC_NODE = 163.6509
ARG_OF_PERICENTER = 69.9848
MEAN_ANOMALY   = 1.3133

EPHEMERIS_TYPE = 0
CLASSIFICATION_TYPE = U
NORAD_CAT_ID   = 67714
ELEMENT_SET_NO = 999
REV_AT_EPOCH   = 309
BSTAR          = -.70298E-2
MEAN_MOTION_DOT = -.1612715E-1
MEAN_MOTION_DDOT = 0

CCSDS_OMM_VERS = 2.0
CREATION_DATE  = 
ORIGINATOR     = 

OBJECT_NAME    = STARLINK-36718
OBJECT_ID      = 2026-025Y
CENTER_NAME    = EARTH
REF_FRAME      = TEME
TIME_SYSTEM    = UTC
MEAN_ELEMENT_THEORY = SGP/SGP4

EPOCH          = 2026-02-21T20:00:01.999008
MEAN_MOTION    = 15.88357825
ECCENTRICITY   = .0001497
INCLINATION    = 97.2697
RA_OF_ASC_NODE = 163.6642
ARG_OF_PERICENTER = 83.4110
MEAN_ANOMALY   = 15.8329

EPHEMERIS_TYPE = 0
CLASSIFICATION_TYPE = U
NORAD_CAT_ID   = 67715
ELEMENT_SET_NO = 999
REV_AT_EPOCH   = 330
BSTAR          = -.66273E-2
MEAN_MOTION_DOT = -.1597526E-1
MEAN_MOTION_DDOT = 0

CCSDS_OMM_VERS = 2.0
CREATION_DATE  = 
ORIGINATOR     = 

OBJECT_NAME    = STARLINK-36715
OBJECT_ID      = 2026-025Z
CENTER_NAME    = EARTH
REF_FRAME      = TEME
TIME_SYSTEM    = UTC
MEAN_ELEMENT_THEORY = SGP/SGP4

EPOCH          = 2026-02-21T20:00:01.999008
MEAN_MOTION    = 15.88023268
ECCENTRICITY   = .000161
INCLINATION    = 97.2692
RA_OF_ASC_NODE = 163.6598
ARG_OF_PERICENTER = 67.8590
MEAN_ANOMALY   = 22.1425

EPHEMERIS_TYPE = 0
CLASSIFICATION_TYPE = U
NORAD_CAT_ID   = 67716
ELEMENT_SET_NO = 999
REV_AT_EPOCH   = 336
BSTAR          = -.66633E-2
MEAN_MOTION_DOT = -.1581861E-1
MEAN_MOTION_DDOT = 0

CCSDS_OMM_VERS = 2.0
CREATION_DATE  = 
ORIGINATOR     = 

OBJECT_NAME    = STARLINK-36385
OBJECT_ID      = 2026-025AA
CENTER_NAME    = EARTH
REF_FRAME      = TEME
TIME_SYSTEM    = UTC
MEAN_ELEMENT_THEORY = SGP/SGP4

EPOCH          = 2026-02-21T20:00:01.999008
MEAN_MOTION    = 15.87047076
ECCENTRICITY   = .0001615
INCLINATION    = 97.2697
RA_OF_ASC_NODE = 163.6472
ARG_OF_PERICENTER = 70.4737
MEAN_ANOMALY   = 350.8857

EPHEMERIS_TYPE = 0
CLASSIFICATION_TYPE = U
NORAD_CAT_ID   = 67717
ELEMENT_SET_NO = 999
REV_AT_EPOCH   = 336
BSTAR          = -.71821E-2
MEAN_MOTION_DOT = -.1619139E-1
MEAN_MOTION_DDOT = 0

CCSDS_OMM_VERS = 2.0
CREATION_DATE  = 
ORIGINATOR     = 

OBJECT_NAME    = CZ-2F DEB
OBJECT_ID      = 2026-024E
CENTER_NAME    = EARTH
REF_FRAME      = TEME
TIME_SYSTEM    = UTC
MEAN_ELEMENT_THEORY = SGP/SGP4

EPOCH          = 2026-02-21T12:34:04.197216
MEAN_MOTION    = 15.18401207
ECCENTRICITY   = .0254847
INCLINATION    = 50.3137
RA_OF_ASC_NODE = 97.7487
ARG_OF_PERICENTER = 216.4248
MEAN_ANOMALY   = 141.9134

EPHEMERIS_TYPE = 0
CLASSIFICATION_TYPE = U
NORAD_CAT_ID   = 67718
ELEMENT_SET_NO = 999
REV_AT_EPOCH   = 217
BSTAR          = .41028E-2
MEAN_MOTION_DOT = .21027E-2
MEAN_MOTION_DDOT = 0

CCSDS_OMM_VERS = 2.0
CREATION_DATE  = 
ORIGINATOR     = 

OBJECT_NAME    = CZ-2F DEB
OBJECT_ID      = 2026-024F
CENTER_NAME    = EARTH
REF_FRAME      = TEME
TIME_SYSTEM    = UTC
MEAN_ELEMENT_THEORY = SGP/SGP4

EPOCH          = 2026-02-21T13:43:55.231392
MEAN_MOTION    = 14.98572686
ECCENTRICITY   = .0329059
INCLINATION    = 49.7898
RA_OF_ASC_NODE = 99.1977
ARG_OF_PERICENTER = 206.8787
MEAN_ANOMALY   = 151.4773

EPHEMERIS_TYPE = 0
CLASSIFICATION_TYPE = U
NORAD_CAT_ID   = 67719
ELEMENT_SET_NO = 999
REV_AT_EPOCH   = 182
BSTAR          = .38013E-2
MEAN_MOTION_DOT = .150422E-2
MEAN_MOTION_DDOT = 0

CCSDS_OMM_VERS = 2.0
CREATION_DATE  = 
ORIGINATOR     = 

OBJECT_NAME    = CZ-2F DEB
OBJECT_ID      = 2026-024G
CENTER_NAME    = EARTH
REF_FRAME      = TEME
TIME_SYSTEM    = UTC
MEAN_ELEMENT_THEORY = SGP/SGP4

EPOCH          = 2026-02-21T19:09:29.679552
MEAN_MOTION    = 14.95982029
ECCENTRICITY   = .0339398
INCLINATION    = 49.8297
RA_OF_ASC_NODE = 98.4176
ARG_OF_PERICENTER = 204.2452
MEAN_ANOMALY   = 154.2191

EPHEMERIS_TYPE = 0
CLASSIFICATION_TYPE = U
NORAD_CAT_ID   = 67720
ELEMENT_SET_NO = 999
REV_AT_EPOCH   = 217
BSTAR          = .39202E-2
MEAN_MOTION_DOT = .151163E-2
MEAN_MOTION_DDOT = 0

